STARLINK-5638           
1 55426U 23014AM  26068.45492473  .00000926  00000+0  85342-4 0  9994
2 55426  69.9988  85.1870 0003103 270.8133  89.2671 14.98340882171529
UM5-RIBAT               
1 60554U 24149CQ  26068.79561721  .00004725  00000+0  37993-3 0  9991
2 60554  97.6776 147.9138 0003272  87.0399 273.1199 15.00468196 85282
